CTC2_L_00244016-03
1 88094U 26444RX  26070.40844907  .00000000  00000+0  00000-0 0  9999
2 88094  80.0000 180.0000 0000000   0.0000   0.0000 14.15679949    14
CTC2_L_00244016-04
1 88095U 24977XC  26070.40844907  .00000000  00000+0  00000-0 0  9999
2 88095  80.0000 180.0000 0000000   0.0000  90.0000 14.15679949    14
CTC2_L_00244017-01
1 88096U 24401MH  26070.40844907  .00000000  00000+0  00000-0 0  9992
2 88096  80.0000 192.0000 0000000   0.0000 192.0000 14.15679949    11
CTC2_L_00244017-02
1 88097U 23348PM  26070.40844907  .00000000  00000+0  00000-0 0  9992
2 88097  80.0000 192.0000 0000000   0.0000 282.0000 14.15679949    12
CTC2_L_00244017-03
1 88098U 23772QK  26070.40844907  .00000000  00000+0  00000-0 0  9994
2 88098  80.0000 192.0000 0000000   0.0000  12.0000 14.15679949    14
CTC2_L_00244017-04
1 88099U 24332VY  26070.40844907  .00000000  00000+0  00000-0 0  9998
2 88099  80.0000 192.0000 0000000   0.0000 102.0000 14.15679949    15
CTC2_L_00244018-01
1 88100U 22399KE  26070.40844907  .00000000  00000+0  00000-0 0  9992
2 88100  80.0000 204.0000 0000000   0.0000 204.0000 14.15679949    15
CTC2_L_00244018-02
1 88101U 24418DB  26070.40844907  .00000000  00000+0  00000-0 0  9997
2 88101  80.0000 204.0000 0000000   0.0000 294.0000 14.15679949    15
CTC2_L_00244018-03
1 88102U 24766RU  26070.40844907  .00000000  00000+0  00000-0 0  9994
2 88102  80.0000 204.0000 0000000   0.0000  24.0000 14.15679949    17
CTC2_L_00244018-04
1 88103U 24881ST  26070.40844907  .00000000  00000+0  00000-0 0  9993
2 88103  80.0000 204.0000 0000000   0.0000 114.0000 14.15679949    18
CTC2_L_00244019-01
1 88104U 22336GZ  26070.40844907  .00000000  00000+0  00000-0 0  9997
2 88104  80.0000 216.0000 0000000   0.0000 216.0000 14.15679949    15
CTC2_L_00244019-02
1 88105U 26084HN  26070.40844907  .00000000  00000+0  00000-0 0  9992
2 88105  80.0000 216.0000 0000000   0.0000 306.0000 14.15679949    16
CTC2_L_00244019-03
1 88106U 24292UI  26070.40844907  .00000000  00000+0  00000-0 0  9992
2 88106  80.0000 216.0000 0000000   0.0000  36.0000 14.15679949    17
CTC2_L_00244019-04
1 88107U 24503YU  26070.40844907  .00000000  00000+0  00000-0 0  9998
2 88107  80.0000 216.0000 0000000   0.0000 126.0000 14.15679949    18
CTC2_L_00244020-01
1 88108U 23879JB  26070.40844907  .00000000  00000+0  00000-0 0  9994
2 88108  80.0000 228.0000 0000000   0.0000 228.0000 14.15679949    15
CTC2_L_00244020-02
1 88109U 22938TL  26070.40844907  .00000000  00000+0  00000-0 0  9990
2 88109  80.0000 228.0000 0000000   0.0000 318.0000 14.15679949    16
CTC2_L_00244020-03
1 88110U 23902CC  26070.40844907  .00000000  00000+0  00000-0 0  9994
2 88110  80.0000 228.0000 0000000   0.0000  48.0000 14.15679949    18
CTC2_L_00244020-04
1 88111U 24818NT  26070.40844907  .00000000  00000+0  00000-0 0  9992
2 88111  80.0000 228.0000 0000000   0.0000 138.0000 14.15679949    19
CTC2_L_00244021-01
1 88112U 26921JY  26070.40844907  .00000000  00000+0  00000-0 0  9990
2 88112  80.0000 240.0000 0000000   0.0000 240.0000 14.15679949    18
CTC2_L_00244021-02
1 88113U 25040IE  26070.40844907  .00000000  00000+0  00000-0 0  9992
2 88113  80.0000 240.0000 0000000   0.0000 330.0000 14.15679949    19
CTC2_L_00244021-03
1 88114U 26045BN  26070.40844907  .00000000  00000+0  00000-0 0  9999
2 88114  80.0000 240.0000 0000000   0.0000  60.0000 14.15679949    10
CTC2_L_00244021-04
1 88115U 25037HD  26070.40844907  .00000000  00000+0  00000-0 0  9990
2 88115  80.0000 240.0000 0000000   0.0000 150.0000 14.15679949    11
CTC2_L_00244022-01
1 88116U 26663HB  26070.40844907  .00000000  00000+0  00000-0 0  9997
2 88116  80.0000 252.0000 0000000   0.0000 252.0000 14.15679949    18
CTC2_L_00244022-02
1 88117U 22583ZY  26070.40844907  .00000000  00000+0  00000-0 0  9995
2 88117  80.0000 252.0000 0000000   0.0000 342.0000 14.15679949    19
CTC2_L_00244022-03
1 88118U 22824RB  26070.40844907  .00000000  00000+0  00000-0 0  9994
2 88118  80.0000 252.0000 0000000   0.0000  72.0000 14.15679949    10
CTC2_L_00244022-04
1 88119U 23364UZ  26070.40844907  .00000000  00000+0  00000-0 0  9995
2 88119  80.0000 252.0000 0000000   0.0000 162.0000 14.15679949    11
CTC2_L_00244023-01
1 88120U 23726AM  26070.40844907  .00000000  00000+0  00000-0 0  9999
2 88120  80.0000 264.0000 0000000   0.0000 264.0000 14.15679949    19
CTC2_L_00244023-02
1 88121U 22517BE  26070.40844907  .00000000  00000+0  00000-0 0  9997
2 88121  80.0000 264.0000 0000000   0.0000 354.0000 14.15679949    10
CTC2_L_00244023-03
1 88122U 25346MZ  26070.40844907  .00000000  00000+0  00000-0 0  9991
2 88122  80.0000 264.0000 0000000   0.0000  84.0000 14.15679949    11
CTC2_L_00244023-04
1 88123U 22231EJ  26070.40844907  .00000000  00000+0  00000-0 0  9992
2 88123  80.0000 264.0000 0000000   0.0000 174.0000 14.15679949    12
CTC2_L_00244024-01
1 88124U 22946OV  26070.40844907  .00000000  00000+0  00000-0 0  9996
2 88124  80.0000 276.0000 0000000   0.0000 276.0000 14.15679949    19
CTC2_L_00244024-02
1 88125U 22744QO  26070.40844907  .00000000  00000+0  00000-0 0  9993
2 88125  80.0000 276.0000 0000000   0.0000   6.0000 14.15679949    11
CTC2_L_00244024-03
1 88126U 26022DD  26070.40844907  .00000000  00000+0  00000-0 0  9997
2 88126  80.0000 276.0000 0000000   0.0000  96.0000 14.15679949    11
CTC2_L_00244024-04
1 88127U 25909EZ  26070.40844907  .00000000  00000+0  00000-0 0  9991
2 88127  80.0000 276.0000 0000000   0.0000 186.0000 14.15679949    12
CTC2_L_00244025-01
1 88128U 24534VE  26070.40844907  .00000000  00000+0  00000-0 0  9995
2 88128  80.0000 288.0000 0000000   0.0000 288.0000 14.15679949    19
CTC2_L_00244025-02
1 88129U 26536VU  26070.40844907  .00000000  00000+0  00000-0 0  9990
2 88129  80.0000 288.0000 0000000   0.0000  18.0000 14.15679949    11
CTC2_L_00244025-03
1 88130U 26630II  26070.40844907  .00000000  00000+0  00000-0 0  9997
2 88130  80.0000 288.0000 0000000   0.0000 108.0000 14.15679949    13
CTC2_L_00244025-04
1 88131U 22719ID  26070.40844907  .00000000  00000+0  00000-0 0  9992
2 88131  80.0000 288.0000 0000000   0.0000 198.0000 14.15679949    13
CTC2_L_00244026-01
1 88132U 24746EW  26070.40844907  .00000000  00000+0  00000-0 0  9995
2 88132  80.0000 300.0000 0000000   0.0000 300.0000 14.15679949    14
CTC2_L_00244026-02
1 88133U 22720RY  26070.40844907  .00000000  00000+0  00000-0 0  9996
2 88133  80.0000 300.0000 0000000   0.0000  30.0000 14.15679949    15
CTC2_L_00244026-03
1 88134U 23203NI  26070.40844907  .00000000  00000+0  00000-0 0  9994
2 88134  80.0000 300.0000 0000000   0.0000 120.0000 14.15679949    16
CTC2_L_00244026-04
1 88135U 22902PX  26070.40844907  .00000000  00000+0  00000-0 0  9990
2 88135  80.0000 300.0000 0000000   0.0000 210.0000 14.15679949    17
CTC2_L_00244027-01
1 88136U 26864WX  26070.40844907  .00000000  00000+0  00000-0 0  9992
2 88136  80.0000 312.0000 0000000   0.0000 312.0000 14.15679949    14
CTC2_L_00244027-02
1 88137U 25058VW  26070.40844907  .00000000  00000+0  00000-0 0  9997
2 88137  80.0000 312.0000 0000000   0.0000  42.0000 14.15679949    15
CTC2_L_00244027-03
1 88138U 26875FO  26070.40844907  .00000000  00000+0  00000-0 0  9996
2 88138  80.0000 312.0000 0000000   0.0000 132.0000 14.15679949    16
CTC2_L_00244027-04
1 88139U 26708GZ  26070.40844907  .00000000  00000+0  00000-0 0  9992
2 88139  80.0000 312.0000 0000000   0.0000 222.0000 14.15679949    17
CTC2_L_00244028-01
1 88140U 26735LL  26070.40844907  .00000000  00000+0  00000-0 0  9994
2 88140  80.0000 324.0000 0000000   0.0000 324.0000 14.15679949    15
CTC2_L_00244028-02
1 88141U 23206FN  26070.40844907  .00000000  00000+0  00000-0 0  9995
2 88141  80.0000 324.0000 0000000   0.0000  54.0000 14.15679949    16
CTC2_L_00244028-03
1 88142U 22033SC  26070.40844907  .00000000  00000+0  00000-0 0  9993
2 88142  80.0000 324.0000 0000000   0.0000 144.0000 14.15679949    17
CTC2_L_00244028-04
1 88143U 23109MP  26070.40844907  .00000000  00000+0  00000-0 0  9999
2 88143  80.0000 324.0000 0000000   0.0000 234.0000 14.15679949    18
CTC2_L_00244029-01
1 88144U 26297UM  26070.40844907  .00000000  00000+0  00000-0 0  9991
2 88144  80.0000 336.0000 0000000   0.0000 336.0000 14.15679949    15
CTC2_L_00244029-02
1 88145U 24145GP  26070.40844907  .00000000  00000+0  00000-0 0  9992
2 88145  80.0000 336.0000 0000000   0.0000  66.0000 14.15679949    16
CTC2_L_00244029-03
1 88146U 23099EP  26070.40844907  .00000000  00000+0  00000-0 0  9990
2 88146  80.0000 336.0000 0000000   0.0000 156.0000 14.15679949    17
CTC2_L_00244029-04
1 88147U 23217ED  26070.40844907  .00000000  00000+0  00000-0 0  9993
2 88147  80.0000 336.0000 0000000   0.0000 246.0000 14.15679949    18
CTC2_L_00244030-01
1 88148U 22817MY  26070.40844907  .00000000  00000+0  00000-0 0  9999
2 88148  80.0000 348.0000 0000000   0.0000 348.0000 14.15679949    15
CTC2_L_00244030-02
1 88149U 25766MP  26070.40844907  .00000000  00000+0  00000-0 0  9996
2 88149  80.0000 348.0000 0000000   0.0000  78.0000 14.15679949    16
CTC2_L_00244030-03
1 88150U 25781KB  26070.40844907  .00000000  00000+0  00000-0 0  9995
2 88150  80.0000 348.0000 0000000   0.0000 168.0000 14.15679949    18
CTC2_L_00244030-04
1 88151U 23809FX  26070.40844907  .00000000  00000+0  00000-0 0  9995
2 88151  80.0000 348.0000 0000000   0.0000 258.0000 14.15679949    19
